[{"OBJECT_NAME":"STARLINK-34512","OBJECT_ID":"2025-129H","EPOCH":"2026-03-09T16:00:03.000096","MEAN_MOTION":14.98346978,"ECCENTRICITY":0.00032586,"INCLINATION":70.0002,"RA_OF_ASC_NODE":74.612,"ARG_OF_PERICENTER":271.1613,"MEAN_ANOMALY":5.2775,"EPHEMERIS_TYPE":0,"CLASSIFICATION_TYPE":"U","NORAD_CAT_ID":64419,"ELEMENT_SET_NO":999,"REV_AT_EPOCH":577,"BSTAR":-0.0038309179,"MEAN_MOTION_DOT":-0.00045528,"MEAN_MOTION_DDOT":0},{"OBJECT_NAME":"OBJECT U","OBJECT_ID":"2017-042U","EPOCH":"2026-03-09T22:07:56.164512","MEAN_MOTION":15.00675308,"ECCENTRICITY":0.00148173,"INCLINATION":97.4238,"RA_OF_ASC_NODE":229.7372,"ARG_OF_PERICENTER":56.7191,"MEAN_ANOMALY":303.5451,"EPHEMERIS_TYPE":0,"CLASSIFICATION_TYPE":"U","NORAD_CAT_ID":42843,"ELEMENT_SET_NO":999,"REV_AT_EPOCH":47173,"BSTAR":0.00030670501,"MEAN_MOTION_DOT":3.834e-5,"MEAN_MOTION_DDOT":0}]
